MOLNIYA 2-9             
1 07276U 74026A   22230.00997289  .00000133  00000+0  00000+0 0  9999
2 07276  64.2814 218.5623 6456883 280.5881  17.3048  2.45097688250726
MOLNIYA 2-10            
1 07376U 74056A   22230.54852322 -.00001178  00000+0  00000+0 0  9991
2 07376  64.2046  88.3699 6737895 286.2362  13.6262  2.01144790351630
MOLNIYA 1-S             
1 07392U 74060A   22230.86875153 -.00000021  00000+0  00000+0 0  9992
2 07392   4.9631 282.0007 0011892 210.9464 216.4293  1.00199572120152
MOLNIYA 1-29            
1 07780U 75036A   22230.98532219  .00000053  00000+0 -66368-1 0  9999
2 07780  63.4178 208.2511 6888740 288.6518  11.9873  2.00628300346903
MOLNIYA 2-14            
1 08195U 75081A   22230.03797393  .00001229  00000+0  00000+0 0  9996
2 08195  63.3867 181.3604 6793459 292.8784  11.4781  2.02082843344130
MOLNIYA 1-32            
1 08601U 76006A   22228.51335126 -.00000775  00000+0  12471-1 0  9991
2 08601  63.4825 289.2352 7243846 283.8064  11.2396  2.00084495 53867
MOLNIYA 1-36            
1 09880U 77021A   22230.15249559  .00000368  00000+0  00000+0 0  9996
2 09880  63.4896 260.4567 7169886 289.6836  10.2403  2.00905465230602
MOLNIYA 3-8             
1 10455U 77105A   22229.36814967 -.00000461  00000+0  33774-3 0  9994
2 10455  63.3910 348.6024 7369317 282.2583  10.8630  2.00845199328360
MOLNIYA 1-40            
1 10925U 78055A   22230.54409185  .00000358  00000+0  00000+0 0  9991
2 10925  63.3679  39.3370 7263032 280.6742  11.7996  2.00706649323926
MOLNIYA 3-10            
1 11057U 78095A   22230.31859964  .00000034  00000+0  53154-3 0  9994
2 11057  63.1760  16.4554 5791949 310.7861  11.7361  4.09853601386264
MOLNIYA 3-13            
1 11896U 80063A   22229.77942997  .00000327  00000+0  00000+0 0  9993
2 11896  62.6993 129.6459 7104079 276.3448  14.0796  2.00657940308326
MOLNIYA 1-49            
1 12156U 81009A   22227.99112288  .00000944  00000+0 -11927-2 0  9997
2 12156  61.6982 156.5244 7270330 263.1329  17.2501  2.05700056222719
MOLNIYA 1-52            
1 13012U 81123A   22229.62136134 -.00000567  00000+0 -11090-1 0  9996
2 13012  61.7338 269.9994 7239702 255.5947  20.8102  2.00398845297800
MOLNIYA 1-53            
1 13070U 82015A   22230.40044200 -.00001097  00000+0 -13739-1 0  9992
2 13070  62.6339 206.5589 7033057 282.8255  12.6429  2.00776415296502
MOLNIYA 3-20            
1 13875U 83015A   22230.40975069  .00001319  00000+0  24085-2 0  9994
2 13875  62.7090 342.9821 7401821 258.6011  17.9516  2.00478203224996
MOLNIYA 1-56            
1 13890U 83019A   22228.70756740 -.00000800  00000+0  55216-3 0  9994
2 13890  62.9922   8.4690 7449165 264.5670  15.2663  1.99981436287815
MOLNIYA 1-63            
1 15429U 84124A   22228.28522855  .00001055  00000+0  00000+0 0  9992
2 15429  63.7507 162.0943 6642282 259.3398 273.6378  2.00801913275953
