[{"OBJECT_NAME":"MOLNIYA 2-9","OBJECT_ID":"1974-026A","EPOCH":"2022-08-18T00:14:21.657696","MEAN_MOTION":2.45097688,"ECCENTRICITY":0.6456883,"INCLINATION":64.2814,"RA_OF_ASC_NODE":218.5623,"ARG_OF_PERICENTER":280.5881,"MEAN_ANOMALY":17.3048,"EPHEMERIS_TYPE":0,"CLASSIFICATION_TYPE":"U","NORAD_CAT_ID":7276,"ELEMENT_SET_NO":999,"REV_AT_EPOCH":25072,"BSTAR":0,"MEAN_MOTION_DOT":1.33e-6,"MEAN_MOTION_DDOT":0},{"OBJECT_NAME":"MOLNIYA 2-10","OBJECT_ID":"1974-056A","EPOCH":"2022-08-18T13:09:52.406208","MEAN_MOTION":2.0114479,"ECCENTRICITY":0.6737895,"INCLINATION":64.2046,"RA_OF_ASC_NODE":88.3699,"ARG_OF_PERICENTER":286.2362,"MEAN_ANOMALY":13.6262,"EPHEMERIS_TYPE":0,"CLASSIFICATION_TYPE":"U","NORAD_CAT_ID":7376,"ELEMENT_SET_NO":999,"REV_AT_EPOCH":35163,"BSTAR":0,"MEAN_MOTION_DOT":-1.178e-5,"MEAN_MOTION_DDOT":0},{"OBJECT_NAME":"MOLNIYA 1-S","OBJECT_ID":"1974-060A","EPOCH":"2022-08-18T20:51:00.132192","MEAN_MOTION":1.00199572,"ECCENTRICITY":0.0011892,"INCLINATION":4.9631,"RA_OF_ASC_NODE":282.0007,"ARG_OF_PERICENTER":210.9464,"MEAN_ANOMALY":216.4293,"EPHEMERIS_TYPE":0,"CLASSIFICATION_TYPE":"U","NORAD_CAT_ID":7392,"ELEMENT_SET_NO":999,"REV_AT_EPOCH":12015,"BSTAR":0,"MEAN_MOTION_DOT":-2.1e-7,"MEAN_MOTION_DDOT":0},{"OBJECT_NAME":"MOLNIYA 1-29","OBJECT_ID":"1975-036A","EPOCH":"2022-08-18T23:38:51.837216","MEAN_MOTION":2.006283,"ECCENTRICITY":0.688874,"INCLINATION":63.4178,"RA_OF_ASC_NODE":208.2511,"ARG_OF_PERICENTER":288.6518,"MEAN_ANOMALY":11.9873,"EPHEMERIS_TYPE":0,"CLASSIFICATION_TYPE":"U","NORAD_CAT_ID":7780,"ELEMENT_SET_NO":999,"REV_AT_EPOCH":34690,"BSTAR":-0.066368,"MEAN_MOTION_DOT":5.3e-7,"MEAN_MOTION_DDOT":0},{"OBJECT_NAME":"MOLNIYA 2-14","OBJECT_ID":"1975-081A","EPOCH":"2022-08-18T00:54:40.947552","MEAN_MOTION":2.02082843,"ECCENTRICITY":0.6793459,"INCLINATION":63.3867,"RA_OF_ASC_NODE":181.3604,"ARG_OF_PERICENTER":292.8784,"MEAN_ANOMALY":11.4781,"EPHEMERIS_TYPE":0,"CLASSIFICATION_TYPE":"U","NORAD_CAT_ID":8195,"ELEMENT_SET_NO":999,"REV_AT_EPOCH":34413,"BSTAR":0,"MEAN_MOTION_DOT":1.229e-5,"MEAN_MOTION_DDOT":0},{"OBJECT_NAME":"MOLNIYA 1-32","OBJECT_ID":"1976-006A","EPOCH":"2022-08-16T12:19:13.548864","MEAN_MOTION":2.00084495,"ECCENTRICITY":0.7243846,"INCLINATION":63.4825,"RA_OF_ASC_NODE":289.2352,"ARG_OF_PERICENTER":283.8064,"MEAN_ANOMALY":11.2396,"EPHEMERIS_TYPE":0,"CLASSIFICATION_TYPE":"U","NORAD_CAT_ID":8601,"ELEMENT_SET_NO":999,"REV_AT_EPOCH":5386,"BSTAR":0.012471,"MEAN_MOTION_DOT":-7.75e-6,"MEAN_MOTION_DDOT":0},{"OBJECT_NAME":"MOLNIYA 1-36","OBJECT_ID":"1977-021A","EPOCH":"2022-08-18T03:39:35.618976","MEAN_MOTION":2.00905465,"ECCENTRICITY":0.7169886,"INCLINATION":63.4896,"RA_OF_ASC_NODE":260.4567,"ARG_OF_PERICENTER":289.6836,"MEAN_ANOMALY":10.2403,"EPHEMERIS_TYPE":0,"CLASSIFICATION_TYPE":"U","NORAD_CAT_ID":9880,"ELEMENT_SET_NO":999,"REV_AT_EPOCH":23060,"BSTAR":0,"MEAN_MOTION_DOT":3.68e-6,"MEAN_MOTION_DDOT":0},{"OBJECT_NAME":"MOLNIYA 3-8","OBJECT_ID":"1977-105A","EPOCH":"2022-08-17T08:50:08.131488","MEAN_MOTION":2.00845199,"ECCENTRICITY":0.7369317,"INCLINATION":63.391,"RA_OF_ASC_NODE":348.6024,"ARG_OF_PERICENTER":282.2583,"MEAN_ANOMALY":10.863,"EPHEMERIS_TYPE":0,"CLASSIFICATION_TYPE":"U","NORAD_CAT_ID":10455,"ELEMENT_SET_NO":999,"REV_AT_EPOCH":32836,"BSTAR":0.00033774,"MEAN_MOTION_DOT":-4.61e-6,"MEAN_MOTION_DDOT":0},{"OBJECT_NAME":"MOLNIYA 1-40","OBJECT_ID":"1978-055A","EPOCH":"2022-08-18T13:03:29.535840","MEAN_MOTION":2.00706649,"ECCENTRICITY":0.7263032,"INCLINATION":63.3679,"RA_OF_ASC_NODE":39.337,"ARG_OF_PERICENTER":280.6742,"MEAN_ANOMALY":11.7996,"EPHEMERIS_TYPE":0,"CLASSIFICATION_TYPE":"U","NORAD_CAT_ID":10925,"ELEMENT_SET_NO":999,"REV_AT_EPOCH":32392,"BSTAR":0,"MEAN_MOTION_DOT":3.58e-6,"MEAN_MOTION_DDOT":0},{"OBJECT_NAME":"MOLNIYA 3-10","OBJECT_ID":"1978-095A","EPOCH":"2022-08-18T07:38:47.008896","MEAN_MOTION":4.09853601,"ECCENTRICITY":0.5791949,"INCLINATION":63.176,"RA_OF_ASC_NODE":16.4554,"ARG_OF_PERICENTER":310.7861,"MEAN_ANOMALY":11.7361,"EPHEMERIS_TYPE":0,"CLASSIFICATION_TYPE":"U","NORAD_CAT_ID":11057,"ELEMENT_SET_NO":999,"REV_AT_EPOCH":38626,"BSTAR":0.00053154,"MEAN_MOTION_DOT":3.4e-7,"MEAN_MOTION_DDOT":0},{"OBJECT_NAME":"MOLNIYA 3-13","OBJECT_ID":"1980-063A","EPOCH":"2022-08-17T18:42:22.749408","MEAN_MOTION":2.0065794,"ECCENTRICITY":0.7104079,"INCLINATION":62.6993,"RA_OF_ASC_NODE":129.6459,"ARG_OF_PERICENTER":276.3448,"MEAN_ANOMALY":14.0796,"EPHEMERIS_TYPE":0,"CLASSIFICATION_TYPE":"U","NORAD_CAT_ID":11896,"ELEMENT_SET_NO":999,"REV_AT_EPOCH":30832,"BSTAR":0,"MEAN_MOTION_DOT":3.27e-6,"MEAN_MOTION_DDOT":0},{"OBJECT_NAME":"MOLNIYA 1-49","OBJECT_ID":"1981-009A","EPOCH":"2022-08-15T23:47:13.016832","MEAN_MOTION":2.05700056,"ECCENTRICITY":0.727033,"INCLINATION":61.6982,"RA_OF_ASC_NODE":156.5244,"ARG_OF_PERICENTER":263.1329,"MEAN_ANOMALY":17.2501,"EPHEMERIS_TYPE":0,"CLASSIFICATION_TYPE":"U","NORAD_CAT_ID":12156,"ELEMENT_SET_NO":999,"REV_AT_EPOCH":22271,"BSTAR":-0.0011927,"MEAN_MOTION_DOT":9.44e-6,"MEAN_MOTION_DDOT":0},{"OBJECT_NAME":"MOLNIYA 1-52","OBJECT_ID":"1981-123A","EPOCH":"2022-08-17T14:54:45.619776","MEAN_MOTION":2.00398845,"ECCENTRICITY":0.7239702,"INCLINATION":61.7338,"RA_OF_ASC_NODE":269.9994,"ARG_OF_PERICENTER":255.5947,"MEAN_ANOMALY":20.8102,"EPHEMERIS_TYPE":0,"CLASSIFICATION_TYPE":"U","NORAD_CAT_ID":13012,"ELEMENT_SET_NO":999,"REV_AT_EPOCH":29780,"BSTAR":-0.01109,"MEAN_MOTION_DOT":-5.67e-6,"MEAN_MOTION_DDOT":0},{"OBJECT_NAME":"MOLNIYA 1-53","OBJECT_ID":"1982-015A","EPOCH":"2022-08-18T09:36:38.188800","MEAN_MOTION":2.00776415,"ECCENTRICITY":0.7033057,"INCLINATION":62.6339,"RA_OF_ASC_NODE":206.5589,"ARG_OF_PERICENTER":282.8255,"MEAN_ANOMALY":12.6429,"EPHEMERIS_TYPE":0,"CLASSIFICATION_TYPE":"U","NORAD_CAT_ID":13070,"ELEMENT_SET_NO":999,"REV_AT_EPOCH":29650,"BSTAR":-0.013739,"MEAN_MOTION_DOT":-1.097e-5,"MEAN_MOTION_DDOT":0},{"OBJECT_NAME":"MOLNIYA 3-20","OBJECT_ID":"1983-015A","EPOCH":"2022-08-18T09:50:02.459616","MEAN_MOTION":2.00478203,"ECCENTRICITY":0.7401821,"INCLINATION":62.709,"RA_OF_ASC_NODE":342.9821,"ARG_OF_PERICENTER":258.6011,"MEAN_ANOMALY":17.9516,"EPHEMERIS_TYPE":0,"CLASSIFICATION_TYPE":"U","NORAD_CAT_ID":13875,"ELEMENT_SET_NO":999,"REV_AT_EPOCH":22499,"BSTAR":0.0024085,"MEAN_MOTION_DOT":1.319e-5,"MEAN_MOTION_DDOT":0},{"OBJECT_NAME":"MOLNIYA 1-56","OBJECT_ID":"1983-019A","EPOCH":"2022-08-16T16:58:53.823360","MEAN_MOTION":1.99981436,"ECCENTRICITY":0.7449165,"INCLINATION":62.9922,"RA_OF_ASC_NODE":8.469,"ARG_OF_PERICENTER":264.567,"MEAN_ANOMALY":15.2663,"EPHEMERIS_TYPE":0,"CLASSIFICATION_TYPE":"U","NORAD_CAT_ID":13890,"ELEMENT_SET_NO":999,"REV_AT_EPOCH":28781,"BSTAR":0.00055216,"MEAN_MOTION_DOT":-8.0e-6,"MEAN_MOTION_DDOT":0},{"OBJECT_NAME":"MOLNIYA 1-63","OBJECT_ID":"1984-124A","EPOCH":"2022-08-16T06:50:43.746720","MEAN_MOTION":2.00801913,"ECCENTRICITY":0.6642282,"INCLINATION":63.7507,"RA_OF_ASC_NODE":162.0943,"ARG_OF_PERICENTER":259.3398,"MEAN_ANOMALY":273.6378,"EPHEMERIS_TYPE":0,"CLASSIFICATION_TYPE":"U","NORAD_CAT_ID":15429,"ELEMENT_SET_NO":999,"REV_AT_EPOCH":27595,"BSTAR":0,"MEAN_MOTION_DOT":1.055e-5,"MEAN_MOTION_DDOT":0}]